{
  "norad_id": 66301,
  "name": "ICEYE-X66",
  "history": [
    {
      "epoch": "2026-03-28T14:02:56.901984Z",
      "apogee_km": 545.5514946690246,
      "perigee_km": 537.3393342595382,
      "latitude_deg": 2.4442270052857295e-06,
      "longitude_deg": 161.20729733886898,
      "height_km": 540.0790271552522,
      "semi_major_axis_km": 6919.582414464281,
      "eccentricity": 0.0005934,
      "inclination_deg": 45.3986,
      "raan_deg": 197.9481,
      "arg_perigee_deg": 290.1307,
      "mean_anomaly_deg": 69.8936,
      "mean_motion_rev_day": 15.08283335
    }
  ]
}