{"fetched_at":"2026-03-29T16:36:15Z","count":15609,"tles":[{"name":"ICEYE-X66","line1":"1 66301U 25248J   26087.58538081  .00003780  00000+0  25570-3 0  9997","line2":"2 66301  45.3986 197.9481 0005934 290.1307  69.8936 15.08283335 23335","category":"Other"}]}